{
    "links": {
        "self": "http://www.neowsapp.com/rest/v1/neo/3435083?api_key=iIulBulltgU6a56xZRHN4H3l9WmuAYTsLGpBGhQ2"
    },
    "id": "3435083",
    "neo_reference_id": "3435083",
    "name": "(2008 UW99)",
    "designation": "2008 UW99",
    "nasa_jpl_url": "http://ssd.jpl.nasa.gov/sbdb.cgi?sstr=3435083",
    "absolute_magnitude_h": 24.7,
    "estimated_diameter": {
        "kilometers": {
            "estimated_diameter_min": 0.0305179233,
            "estimated_diameter_max": 0.0682401509
        },
        "meters": {
            "estimated_diameter_min": 30.5179232594,
            "estimated_diameter_max": 68.2401509401
        },
        "miles": {
            "estimated_diameter_min": 0.0189629525,
            "estimated_diameter_max": 0.0424024508
        },
        "feet": {
            "estimated_diameter_min": 100.1244233463,
            "estimated_diameter_max": 223.8850168104
        }
    },
    "is_potentially_hazardous_asteroid": false,
    "close_approach_data": [
        {
            "close_approach_date": "2008-10-28",
            "close_approach_date_full": "2008-Oct-28 00:41",
            "epoch_date_close_approach": 1225154460000,
            "relative_velocity": {
                "kilometers_per_second": "11.2881034041",
                "kilometers_per_hour": "40637.1722546383",
                "miles_per_hour": "25250.3585045557"
            },
            "miss_distance": {
                "astronomical": "0.0075162983",
                "lunar": "2.9238400387",
                "kilometers": "1124422.215964621",
                "miles": "698683.5666129298"
            },
            "orbiting_body": "Moon"
        },
        {
            "close_approach_date": "2008-10-28",
            "close_approach_date_full": "2008-Oct-28 07:25",
            "epoch_date_close_approach": 1225178700000,
            "relative_velocity": {
                "kilometers_per_second": "10.4361465079",
                "kilometers_per_hour": "37570.1274283712",
                "miles_per_hour": "23344.6161234788"
            },
            "miss_distance": {
                "astronomical": "0.0088449131",
                "lunar": "3.4406711959",
                "kilometers": "1323180.160095097",
                "miles": "822186.0262104586"
            },
            "orbiting_body": "Earth"
        }
    ],
    "orbital_data": {
        "orbit_id": "19",
        "orbit_determination_date": "2017-04-06 09:02:21",
        "first_observation_date": "2008-10-31",
        "last_observation_date": "2008-12-07",
        "data_arc_in_days": 37,
        "observations_used": 50,
        "orbit_uncertainty": "7",
        "minimum_orbit_intersection": ".00613406",
        "jupiter_tisserand_invariant": "3.195",
        "epoch_osculation": "2459000.5",
        "eccentricity": ".6158504314478978",
        "semi_major_axis": "2.464365555265438",
        "inclination": "1.47079884019709",
        "ascending_node_longitude": "21.3079608000396",
        "orbital_period": "1413.045420285556",
        "perihelion_distance": ".9466849648098797",
        "perihelion_argument": "345.3818531305413",
        "aphelion_distance": "3.982046145720996",
        "perihelion_time": "2458980.077238241413",
        "mean_anomaly": "5.203084152528828",
        "mean_motion": ".2547688806261084",
        "equinox": "J2000",
        "orbit_class": {
            "orbit_class_type": "APO",
            "orbit_class_description": "Near-Earth asteroid orbits which cross the Earth’s orbit similar to that of 1862 Apollo",
            "orbit_class_range": "a (semi-major axis) > 1.0 AU; q (perihelion) < 1.017 AU"
        }
    },
    "is_sentry_object": false
}